start=new Date('2023-03-08T00:00:00.000Z').valueOf();
sats=[{"EPHEMERIS_TYPE":"0","RCS_SIZE":"LARGE","MEAN_ELEMENT_THEORY":"SGP4","ARG_OF_PERICENTER":"8.9710","MEAN_MOTION_DOT":"0.00000403","NORAD_CAT_ID":"50168","PERIOD":"95.438","OBJECT_ID":"2021-125N","ECCENTRICITY":"0.00037500","TLE_LINE1":"1 50168U 21125N   23066.91335961  .00000403  00000-0  43460-4 0  9993","OBJECT_NAME":"STARLINK-3296","CENTER_NAME":"EARTH","MEAN_MOTION_DDOT":"0.0000000000000","REV_AT_EPOCH":"7087","ELEMENT_SET_NO":"999","GP_ID":"227674867","APOAPSIS":"542.377","FILE":"3854072","DECAY_DATE":null,"SITE":"AFWTR","INCLINATION":"53.2168","SEMIMAJOR_AXIS":"6917.918","RA_OF_ASC_NODE":"137.2421","OBJECT_TYPE":"PAYLOAD","LAUNCH_DATE":"2021-12-18","EPOCH":"2023-03-07T21:55:14.270304","MEAN_MOTION":"15.08827700","TIME_SYSTEM":"UTC","REF_FRAME":"TEME","MEAN_ANOMALY":"351.1348","CLASSIFICATION_TYPE":"U","TLE_LINE2":"2 50168  53.2168 137.2421 0003750   8.9710 351.1348 15.08827700 70872","PERIAPSIS":"537.189","COUNTRY_CODE":"US","BSTAR":"0.00004346000000"},{"OBJECT_ID":"2021-125P","PERIOD":"95.439","NORAD_CAT_ID":"50169","ECCENTRICITY":"0.00015050","OBJECT_NAME":"STARLINK-3301","TLE_LINE1":"1 50169U 21125P   23066.88393256 -.00001757  00000-0 -92396-4 0  9998","MEAN_ELEMENT_THEORY":"SGP4","EPHEMERIS_TYPE":"0","RCS_SIZE":"LARGE","MEAN_MOTION_DOT":"-0.00001757","ARG_OF_PERICENTER":"194.2843","ELEMENT_SET_NO":"999","APOAPSIS":"540.841","FILE":"3854044","GP_ID":"227651346","REV_AT_EPOCH":"6778","MEAN_MOTION_DDOT":"0.0000000000000","CENTER_NAME":"EARTH","SITE":"AFWTR","SEMIMAJOR_AXIS":"6917.935","INCLINATION":"53.2180","DECAY_DATE":null,"MEAN_ANOMALY":"165.8107","CLASSIFICATION_TYPE":"U","REF_FRAME":"TEME","PERIAPSIS":"538.759","BSTAR":"-0.00009239600000","COUNTRY_CODE":"US","TLE_LINE2":"2 50169  53.2180 137.3621 0001505 194.2843 165.8107 15.08822065 67780","LAUNCH_DATE":"2021-12-18","EPOCH":"2023-03-07T21:12:51.773184","RA_OF_ASC_NODE":"137.3621","OBJECT_TYPE":"PAYLOAD","MEAN_MOTION":"15.08822065","TIME_SYSTEM":"UTC"},{"LAUNCH_DATE":"2021-12-18","EPOCH":"2023-03-07T16:58:30.450432","RA_OF_ASC_NODE":"138.1531","OBJECT_TYPE":"PAYLOAD","MEAN_MOTION":"15.08847597","TIME_SYSTEM":"UTC","MEAN_ANOMALY":"260.0378","CLASSIFICATION_TYPE":"U","REF_FRAME":"TEME","PERIAPSIS":"538.660","BSTAR":"0.00055437000000","COUNTRY_CODE":"US","TLE_LINE2":"2 50170  53.2139 138.1531 0001535 100.0788 260.0378 15.08847597 70836","DECAY_DATE":null,"SITE":"AFWTR","SEMIMAJOR_AXIS":"6917.857","INCLINATION":"53.2139","REV_AT_EPOCH":"7083","MEAN_MOTION_DDOT":"0.0000000000000","CENTER_NAME":"EARTH","ELEMENT_SET_NO":"999","FILE":"3854072","APOAPSIS":"540.784","GP_ID":"227675364","MEAN_ELEMENT_THEORY":"SGP4","EPHEMERIS_TYPE":"0","RCS_SIZE":"LARGE","MEAN_MOTION_DOT":"0.00008548","ARG_OF_PERICENTER":"100.0788","OBJECT_ID":"2021-125Q","PERIOD":"95.437","NORAD_CAT_ID":"50170","ECCENTRICITY":"0.00015350","TLE_LINE1":"1 50170U 21125Q   23066.70729688  .00008548  00000-0  55437-3 0  9990","OBJECT_NAME":"STARLINK-3245"},{"ECCENTRICITY":"0.00007030","TLE_LINE1":"1 50171U 21125R   23066.92074009 -.00011461  00000-0 -70310-3 0  9992","OBJECT_NAME":"STARLINK-3286","PERIOD":"95.437","OBJECT_ID":"2021-125R","NORAD_CAT_ID":"50171","MEAN_MOTION_DOT":"-0.00011461","ARG_OF_PERICENTER":"133.5434","MEAN_ELEMENT_THEORY":"SGP4","EPHEMERIS_TYPE":"0","RCS_SIZE":"LARGE","FILE":"3854072","APOAPSIS":"540.221","GP_ID":"227676101","ELEMENT_SET_NO":"999","REV_AT_EPOCH":"7087","CENTER_NAME":"EARTH","MEAN_MOTION_DDOT":"0.0000000000000","SEMIMAJOR_AXIS":"6917.870","INCLINATION":"53.2137","SITE":"AFWTR","DECAY_DATE":null,"PERIAPSIS":"539.248","BSTAR":"-0.00070310000000","COUNTRY_CODE":"US","TLE_LINE2":"2 50171  53.2137 137.1982 0000703 133.5434 226.5617 15.08843553 70874","MEAN_ANOMALY":"226.5617","CLASSIFICATION_TYPE":"U","REF_FRAME":"TEME","TIME_SYSTEM":"UTC","MEAN_MOTION":"15.08843553","LAUNCH_DATE":"2021-12-18","EPOCH":"2023-03-07T22:05:51.943776","RA_OF_ASC_NODE":"137.1982","OBJECT_TYPE":"PAYLOAD"},{"NORAD_CAT_ID":"50172","OBJECT_ID":"2021-125S","PERIOD":"95.438","TLE_LINE1":"1 50172U 21125S   23066.89865941  .00012752  00000-0  81792-3 0  9990","OBJECT_NAME":"STARLINK-3287","ECCENTRICITY":"0.00016410","RCS_SIZE":"LARGE","EPHEMERIS_TYPE":"0","MEAN_ELEMENT_THEORY":"SGP4","ARG_OF_PERICENTER":"96.6205","MEAN_MOTION_DOT":"0.00012752","ELEMENT_SET_NO":"999","GP_ID":"227674368","APOAPSIS":"540.893","FILE":"3854072","CENTER_NAME":"EARTH","MEAN_MOTION_DDOT":"0.0000000000000","REV_AT_EPOCH":"7090","SITE":"AFWTR","INCLINATION":"53.2143","SEMIMAJOR_AXIS":"6917.893","DECAY_DATE":null,"REF_FRAME":"TEME","CLASSIFICATION_TYPE":"U","MEAN_ANOMALY":"263.4974","TLE_LINE2":"2 50172  53.2143 137.2962 0001641  96.6205 263.4974 15.08835946 70905","COUNTRY_CODE":"US","BSTAR":"0.00081792000000","PERIAPSIS":"538.623","OBJECT_TYPE":"PAYLOAD","RA_OF_ASC_NODE":"137.2962","EPOCH":"2023-03-07T21:34:04.173024","LAUNCH_DATE":"2021-12-18","MEAN_MOTION":"15.08835946","TIME_SYSTEM":"UTC"},{"FILE":"3854072","APOAPSIS":"540.674","GP_ID":"227674617","ELEMENT_SET_NO":"999","REV_AT_EPOCH":"7101","CENTER_NAME":"EARTH","MEAN_MOTION_DDOT":"0.0000000000000","OBJECT_NAME":"STARLINK-3289","TLE_LINE1":"1 50173U 21125T   23066.86005550  .00012298  00000-0  78929-3 0  9993","ECCENTRICITY":"0.00013690","PERIOD":"95.437","OBJECT_ID":"2021-125T","NORAD_CAT_ID":"50173","MEAN_MOTION_DOT":"0.00012298","ARG_OF_PERICENTER":"85.3215","MEAN_ELEMENT_THEORY":"SGP4","RCS_SIZE":"LARGE","EPHEMERIS_TYPE":"0","COUNTRY_CODE":"US","BSTAR":"0.00078929000000","PERIAPSIS":"538.780","TLE_LINE2":"2 50173  53.2147 127.4698 0001369  85.3215 274.7934 15.08845880 71012","CLASSIFICATION_TYPE":"U","MEAN_ANOMALY":"274.7934","REF_FRAME":"TEME","TIME_SYSTEM":"UTC","MEAN_MOTION":"15.08845880","EPOCH":"2023-03-07T20:38:28.795200","LAUNCH_DATE":"2021-12-18","OBJECT_TYPE":"PAYLOAD","RA_OF_ASC_NODE":"127.4698","SEMIMAJOR_AXIS":"6917.862","INCLINATION":"53.2147","SITE":"AFWTR","DECAY_DATE":null},{"EPOCH":"2023-03-07T14:56:37.376448","LAUNCH_DATE":"2021-12-18","OBJECT_TYPE":"PAYLOAD","RA_OF_ASC_NODE":"138.5372","MEAN_MOTION":"15.08862642","TIME_SYSTEM":"UTC","CLASSIFICATION_TYPE":"U","MEAN_ANOMALY":"251.8835","REF_FRAME":"TEME","COUNTRY_CODE":"US","BSTAR":"0.00259930000000","PERIAPSIS":"538.903","TLE_LINE2":"2 50174  53.2150 138.5372 0001118 108.2279 251.8835 15.08862642 70870","DECAY_DATE":null,"SITE":"AFWTR","SEMIMAJOR_AXIS":"6917.811","INCLINATION":"53.2150","REV_AT_EPOCH":"7087","CENTER_NAME":"EARTH","MEAN_MOTION_DDOT":"0.0000000000000","ELEMENT_SET_NO":"999","FILE":"3854072","APOAPSIS":"540.450","GP_ID":"227675863","MEAN_ELEMENT_THEORY":"SGP4","RCS_SIZE":"LARGE","EPHEMERIS_TYPE":"0","MEAN_MOTION_DOT":"0.00041348","ARG_OF_PERICENTER":"108.2279","PERIOD":"95.436","OBJECT_ID":"2021-125U","NORAD_CAT_ID":"50174","OBJECT_NAME":"STARLINK-3292","TLE_LINE1":"1 50174U 21125U   23066.62265482  .00041348  00000-0  25993-2 0  9990","ECCENTRICITY":"0.00011180"},{"EPHEMERIS_TYPE":"0","RCS_SIZE":"LARGE","MEAN_ELEMENT_THEORY":"SGP4","ARG_OF_PERICENTER":"120.6982","MEAN_MOTION_DOT":"-0.00002419","NORAD_CAT_ID":"50175","OBJECT_ID":"2021-125V","PERIOD":"95.438","ECCENTRICITY":"0.00007470","TLE_LINE1":"1 50175U 21125V   23066.90969955 -.00002419  00000-0 -13400-3 0  9997","OBJECT_NAME":"STARLINK-3291","CENTER_NAME":"EARTH","MEAN_MOTION_DDOT":"0.0000000000000","REV_AT_EPOCH":"7087","ELEMENT_SET_NO":"999","GP_ID":"227675603","FILE":"3854072","APOAPSIS":"540.303","DECAY_DATE":null,"SITE":"AFWTR","INCLINATION":"53.2138","SEMIMAJOR_AXIS":"6917.921","RA_OF_ASC_NODE":"137.2476","OBJECT_TYPE":"PAYLOAD","EPOCH":"2023-03-07T21:49:58.041120","LAUNCH_DATE":"2021-12-18","MEAN_MOTION":"15.08826688","TIME_SYSTEM":"UTC","REF_FRAME":"TEME","MEAN_ANOMALY":"239.4083","CLASSIFICATION_TYPE":"U","TLE_LINE2":"2 50175  53.2138 137.2476 0000747 120.6982 239.4083 15.08826688 70871","PERIAPSIS":"539.269","BSTAR":"-0.00013400000000","COUNTRY_CODE":"US"},{"OBJECT_ID":"2021-125W","PERIOD":"95.438","NORAD_CAT_ID":"50176","TLE_LINE1":"1 50176U 21125W   23066.89130013  .00001171  00000-0  91648-4 0  9994","OBJECT_NAME":"STARLINK-3293","ECCENTRICITY":"0.00010680","MEAN_ELEMENT_THEORY":"SGP4","RCS_SIZE":"LARGE","EPHEMERIS_TYPE":"0","MEAN_MOTION_DOT":"0.00001171","ARG_OF_PERICENTER":"140.0096","ELEMENT_SET_NO":"999","APOAPSIS":"540.507","FILE":"3854072","GP_ID":"227674868","REV_AT_EPOCH":"7091","CENTER_NAME":"EARTH","MEAN_MOTION_DDOT":"0.0000000000000","SITE":"AFWTR","SEMIMAJOR_AXIS":"6917.904","INCLINATION":"53.2153","DECAY_DATE":null,"CLASSIFICATION_TYPE":"U","MEAN_ANOMALY":"220.0975","REF_FRAME":"TEME","BSTAR":"0.00009164800000","COUNTRY_CODE":"US","PERIAPSIS":"539.030","TLE_LINE2":"2 50176  53.2153 137.3302 0001068 140.0096 220.0975 15.08832432 70912","EPOCH":"2023-03-07T21:23:28.331232","LAUNCH_DATE":"2021-12-18","OBJECT_TYPE":"PAYLOAD","RA_OF_ASC_NODE":"137.3302","TIME_SYSTEM":"UTC","MEAN_MOTION":"15.08832432"},{"APOAPSIS":"540.673","FILE":"3854072","GP_ID":"227675117","ELEMENT_SET_NO":"999","REV_AT_EPOCH":"7087","MEAN_MOTION_DDOT":"0.0000000000000","CENTER_NAME":"EARTH","TLE_LINE1":"1 50177U 21125X   23066.90233873 -.00001192  00000-0 -56867-4 0  9994","OBJECT_NAME":"STARLINK-3282","ECCENTRICITY":"0.00012720","PERIOD":"95.439","OBJECT_ID":"2021-125X","NORAD_CAT_ID":"50177","MEAN_MOTION_DOT":"-0.00001192","ARG_OF_PERICENTER":"103.4831","MEAN_ELEMENT_THEORY":"SGP4","RCS_SIZE":"LARGE","EPHEMERIS_TYPE":"0","BSTAR":"-0.00005686700000","COUNTRY_CODE":"US","PERIAPSIS":"538.913","TLE_LINE2":"2 50177  53.2144 137.2804 0001272 103.4831 256.6303 15.08824493 70879","CLASSIFICATION_TYPE":"U","MEAN_ANOMALY":"256.6303","REF_FRAME":"TEME","MEAN_MOTION":"15.08824493","TIME_SYSTEM":"UTC","EPOCH":"2023-03-07T21:39:22.066272","LAUNCH_DATE":"2021-12-18","OBJECT_TYPE":"PAYLOAD","RA_OF_ASC_NODE":"137.2804","SEMIMAJOR_AXIS":"6917.928","INCLINATION":"53.2144","SITE":"AFWTR","DECAY_DATE":null}];
